$$SOE
2459580.500000000, A.D. 2022-Jan-01 00:00:00.0000, 2.714826672024801E+08, -5.149034396053122E+08, 6.522329542784899E+07,
2459587.500000000, A.D. 2022-Jan-08 00:00:00.0000, 2.787777092506755E+08, -5.094602537855456E+08, 6.384443116690727E+07,
2459594.500000000, A.D. 2022-Jan-15 00:00:00.0000, 2.860049841565034E+08, -5.038929582250844E+08, 6.244999687730718E+07,
2459601.500000000, A.D. 2022-Jan-22 00:00:00.0000, 2.931622033369455E+08, -4.982019655293576E+08, 6.104021489151126E+07,
2459608.500000000, A.D. 2022-Jan-29 00:00:00.0000, 3.002470633933524E+08, -4.923877274339974E+08, 5.961531547109963E+07,
2459615.500000000, A.D. 2022-Feb-05 00:00:00.0000, 3.072572445240860E+08, -4.864507365058162E+08, 5.817553708045062E+07,
2459622.500000000, A.D. 2022-Feb-12 00:00:00.0000, 3.141904111532418E+08, -4.803915289178149E+08, 5.672112637334397E+07,
2459629.500000000, A.D. 2022-Feb-19 00:00:00.0000, 3.210442134523584E+08, -4.742106859280155E+08, 5.525233820725195E+07,
2459636.500000000, A.D. 2022-Feb-26 00:00:00.0000, 3.278162884452458E+08, -4.679088347839827E+08, 5.376943574609713E+07,
2459643.500000000, A.D. 2022-Mar-05 00:00:00.0000, 3.345042608565370E+08, -4.614866496685376E+08, 5.227269058590883E+07,
2459650.500000000, A.D. 2022-Mar-12 00:00:00.0000, 3.411057439270892E+08, -4.549448527507740E+08, 5.076238287704198E+07,
2459657.500000000, A.D. 2022-Mar-19 00:00:00.0000, 3.476183402685442E+08, -4.482842153125514E+08, 4.923880143807623E+07,
2459664.500000000, A.D. 2022-Mar-26 00:00:00.0000, 3.540396427806217E+08, -4.415055589543949E+08, 4.770224385816640E+07,
2459671.500000000, A.D. 2022-Apr-02 00:00:00.0000, 3.603672357000958E+08, -4.346097569343576E+08, 4.615301657635669E+07,
2459678.500000000, A.D. 2022-Apr-09 00:00:00.0000, 3.665986960548489E+08, -4.275977356325572E+08, 4.459143491265161E+07,
2459685.500000000, A.D. 2022-Apr-16 00:00:00.0000, 3.727315958817454E+08, -4.204704754851033E+08, 4.301782307103571E+07,
2459692.500000000, A.D. 2022-Apr-23 00:00:00.0000, 3.787635039409423E+08, -4.132290103014277E+08, 4.143251431906042E+07,
2459699.500000000, A.D. 2022-Apr-30 00:00:00.0000, 3.846919850571638E+08, -4.058744272084024E+08, 3.983585133156328E+07,
2459706.500000000, A.D. 2022-May-07 00:00:00.0000, 3.905146001508080E+08, -3.984078691919510E+08, 3.822818625561923E+07,
2459713.500000000, A.D. 2022-May-14 00:00:00.0000, 3.962289083487799E+08, -3.908305371948639E+08, 3.660988061693864E+07,
2459720.500000000, A.D. 2022-May-21 00:00:00.0000, 4.018324691445066E+08, -3.831436910092210E+08, 3.498130531549084E+07,
2459727.500000000, A.D. 2022-May-28 00:00:00.0000, 4.073228441286106E+08, -3.753486499189943E+08, 3.334284067535560E+07,
2459734.500000000, A.D. 2022-Jun-04 00:00:00.0000, 4.126975985677410E+08, -3.674467934020394E+08, 3.169487649725351E+07,
2459741.500000000, A.D. 2022-Jun-11 00:00:00.0000, 4.179543029769678E+08, -3.594395618856465E+08, 3.003781210018431E+07,
2459748.500000000, A.D. 2022-Jun-18 00:00:00.0000, 4.230905347253278E+08, -3.513284575389875E+08, 2.837205634933007E+07,
2459755.500000000, A.D. 2022-Jun-25 00:00:00.0000, 4.281038797046104E+08, -3.431150451324987E+08, 2.669802766446738E+07,
2459762.500000000, A.D. 2022-Jul-02 00:00:00.0000, 4.329919341955772E+08, -3.348009530267081E+08, 2.501615399084096E+07,
2459769.500000000, A.D. 2022-Jul-09 00:00:00.0000, 4.377523073218092E+08, -3.263878741099916E+08, 2.332687271076967E+07,
2459776.500000000, A.D. 2022-Jul-16 00:00:00.0000, 4.423826240360929E+08, -3.178775655990369E+08, 2.163063058923873E+07,
2459783.500000000, A.D. 2022-Jul-23 00:00:00.0000, 4.468805264407830E+08, -3.092718476214668E+08, 1.992788396123569E+07,
2459790.500000000, A.D. 2022-Jul-30 00:00:00.0000, 4.512436735247930E+08, -3.005726039313781E+08, 1.821909887861606E+07,
2459797.500000000, A.D. 2022-Aug-06 00:00:00.0000, 4.554697429139943E+08, -2.917817841053756E+08, 1.650475093884814E+07,
2459804.500000000, A.D. 2022-Aug-13 00:00:00.0000, 4.595564338104259E+08, -2.829014044603448E+08, 1.478532509588717E+07,
2459811.500000000, A.D. 2022-Aug-20 00:00:00.0000, 4.635014695495555E+08, -2.739335481924704E+08, 1.306131555572665E+07,
2459818.500000000, A.D. 2022-Aug-27 00:00:00.0000, 4.673025998418945E+08, -2.648803654601343E+08, 1.133322569071572E+07,
2459825.500000000, A.D. 2022-Sep-03 00:00:00.0000, 4.709576029447805E+08, -2.557440735171331E+08, 9.601567940548941E+06,
2459832.500000000, A.D. 2022-Sep-10 00:00:00.0000, 4.744642878521928E+08, -2.465269568681703E+08, 7.866863693277195E+06,
2459839.500000000, A.D. 2022-Sep-17 00:00:00.0000, 4.778204965296428E+08, -2.372313674443280E+08, 6.129643143111393E+06,
2459846.500000000, A.D. 2022-Sep-24 00:00:00.0000, 4.810241062518863E+08, -2.278597248455203E+08, 4.390445114856079E+06,
2459853.500000000, A.D. 2022-Oct-01 00:00:00.0000, 4.840730322802641E+08, -2.184145166682903E+08, 2.649816830581680E+06,
2459860.500000000, A.D. 2022-Oct-08 00:00:00.0000, 4.869652312836894E+08, -2.088982983926949E+08, 9.083136232677996E+05,
2459867.500000000, A.D. 2022-Oct-15 00:00:00.0000, 4.896987045687923E+08, -1.993136916253299E+08, -8.335012195962816E+05,
2459874.500000000, A.D. 2022-Oct-22 00:00:00.0000, 4.922714989347957E+08, -1.896633823797974E+08, -2.575056420452431E+06,
2459881.500000000, A.D. 2022-Oct-29 00:00:00.0000, 4.946817076462505E+08, -1.799501219854164E+08, -4.315772925872661E+06,
2459888.500000000, A.D. 2022-Nov-05 00:00:00.0000, 4.969274736176053E+08, -1.701767278793610E+08, -6.055064339680284E+06,
2459895.500000000, A.D. 2022-Nov-12 00:00:00.0000, 4.990069928401018E+08, -1.603460830115568E+08, -7.792337291633874E+06,
2459902.500000000, A.D. 2022-Nov-19 00:00:00.0000, 5.009185173268738E+08, -1.504611348135774E+08, -9.526991753978908E+06,
2459909.500000000, A.D. 2022-Nov-26 00:00:00.0000, 5.026603578332904E+08, -1.405248941262302E+08, -1.125842136263010E+07,
2459916.500000000, A.D. 2022-Dec-03 00:00:00.0000, 5.042308865130898E+08, -1.305404340948871E+08, -1.298601375930119E+07,
2459923.500000000, A.D. 2022-Dec-10 00:00:00.0000, 5.056285395501735E+08, -1.205108890116506E+08, -1.470915095727301E+07,
2459930.500000000, A.D. 2022-Dec-17 00:00:00.0000, 5.068518197849538E+08, -1.104394531275238E+08, -1.642720973506653E+07,
2459937.500000000, A.D. 2022-Dec-24 00:00:00.0000, 5.078992994384380E+08, -1.003293794990850E+08, -1.813956207332616E+07,
2459944.500000000, A.D. 2022-Dec-31 00:00:00.0000, 5.087696232847419E+08, -9.018397876110403E+07, -1.984557565875459E+07,
2459951.500000000, A.D. 2023-Jan-07 00:00:00.0000, 5.094615123874899E+08, -8.000661686148895E+07, -2.154461438739615E+07,
2459958.500000000, A.D. 2023-Jan-14 00:00:00.0000, 5.099737664268064E+08, -6.980071126104461E+07, -2.323603864579526E+07,
2459965.500000000, A.D. 2023-Jan-21 00:00:00.0000, 5.103052639656531E+08, -5.956972877167581E+07, -2.491920556974488E+07,
2459972.500000000, A.D. 2023-Jan-28 00:00:00.0000, 5.104549643144901E+08, -4.931718522957338E+07, -2.659346963257317E+07,
2459979.500000000, A.D. 2023-Feb-04 00:00:00.0000, 5.104219107763472E+08, -3.904664397552274E+07, -2.825818329571073E+07,
2459986.500000000, A.D. 2023-Feb-11 00:00:00.0000, 5.102052334691775E+08, -2.876171333583844E+07, -2.991269757184522E+07,
2459993.500000000, A.D. 2023-Feb-18 00:00:00.0000, 5.098041516553528E+08, -1.846604392772933E+07, -3.155636256124991E+07,
2460000.500000000, A.D. 2023-Feb-25 00:00:00.0000, 5.092179758347057E+08, -8.163325952407679E+06, -3.318852799770068E+07,
2460007.500000000, A.D. 2023-Mar-04 00:00:00.0000, 5.084461096970146E+08, 2.142713540395627E+06, -3.480854381087030E+07,
2460014.500000000, A.D. 2023-Mar-11 00:00:00.0000, 5.074880519560154E+08, 1.244831341376083E+07, -3.641576070676419E+07,
2460021.500000000, A.D. 2023-Mar-18 00:00:00.0000, 5.063433981051682E+08, 2.274968117743301E+07, -3.800953077345636E+07,
2460028.500000000, A.D. 2023-Mar-25 00:00:00.0000, 5.050118422912906E+08, 3.304299564257104E+07, -3.958920813344149E+07,
2460035.500000000, A.D. 2023-Apr-01 00:00:00.0000, 5.034931797226332E+08, 4.332440988600318E+07, -4.115414964805992E+07,
2460042.500000000, A.D. 2023-Apr-08 00:00:00.0000, 5.017873089879146E+08, 5.359005574470087E+07, -4.270371551590893E+07,
2460049.500000000, A.D. 2023-Apr-15 00:00:00.0000, 4.998942319434274E+08, 6.383604873003001E+07, -4.423726963980316E+07,
2460056.500000000, A.D. 2023-Apr-22 00:00:00.0000, 4.978140529723936E+08, 7.405849030349647E+07, -4.575418017638976E+07,
2460063.500000000, A.D. 2023-Apr-29 00:00:00.0000, 4.955469803446574E+08, 8.425346975982215E+07, -4.725382033377598E+07,
2460070.500000000, A.D. 2023-May-06 00:00:00.0000, 4.930933279097883E+08, 9.441706749211238E+07, -4.873556910862432E+07,
2460077.500000000, A.D. 2023-May-13 00:00:00.0000, 4.904535161415246E+08, 1.045453587388628E+08, -5.019881194469801E+07,
2460084.500000000, A.D. 2023-May-20 00:00:00.0000, 4.876280727630329E+08, 1.146344173143602E+08, -5.164294137308701E+07,
2460091.500000000, A.D. 2023-May-27 00:00:00.0000, 4.846176331421916E+08, 1.246803192852512E+08, -5.306735765289284E+07,
2460098.500000000, A.D. 2023-Jun-03 00:00:00.0000, 4.814229405106895E+08, 1.346791466111569E+08, -5.447146941414251E+07,
2460105.500000000, A.D. 2023-Jun-10 00:00:00.0000, 4.780448460275549E+08, 1.446269907272108E+08, -5.585469430483181E+07,
2460112.500000000, A.D. 2023-Jun-17 00:00:00.0000, 4.744843087737464E+08, 1.545199559997553E+08, -5.721645965376049E+07,
2460119.500000000, A.D. 2023-Jun-24 00:00:00.0000, 4.707423959960223E+08, 1.643541631016047E+08, -5.855620317252747E+07,
2460126.500000000, A.D. 2023-Jul-01 00:00:00.0000, 4.668202838512512E+08, 1.741257531251729E+08, -5.987337365059154E+07,
2460133.500000000, A.D. 2023-Jul-08 00:00:00.0000, 4.627192569751757E+08, 1.838308932465692E+08, -6.116743142075209E+07,
2460140.500000000, A.D. 2023-Jul-15 00:00:00.0000, 4.584407055998195E+08, 1.934657811028571E+08, -6.243784870757648E+07,
2460147.500000000, A.D. 2023-Jul-22 00:00:00.0000, 4.539861237432740E+08, 2.030266468382460E+08, -6.368411026493408E+07,
$$EOE